[{"OBJECT_NAME":"SKIF-D","OBJECT_ID":"2022-139D","EPOCH":"2023-09-15T08:50:25.282752","MEAN_MOTION":5.00434313,"ECCENTRICITY":0.0008335,"INCLINATION":89.9992,"RA_OF_ASC_NODE":96.7931,"ARG_OF_PERICENTER":124.1241,"MEAN_ANOMALY":236.032,"EPHEMERIS_TYPE":0,"CLASSIFICATION_TYPE":"U","NORAD_CAT_ID":54153,"ELEMENT_SET_NO":999,"REV_AT_EPOCH":1378,"BSTAR":0,"MEAN_MOTION_DOT":4.2e-7,"MEAN_MOTION_DDOT":0},{"OBJECT_NAME":"STARLINK-5290","OBJECT_ID":"2022-141A","EPOCH":"2023-09-15T01:02:06.932256","MEAN_MOTION":15.08837499,"ECCENTRICITY":0.0001409,"INCLINATION":53.2171,"RA_OF_ASC_NODE":124.2678,"ARG_OF_PERICENTER":82.3367,"MEAN_ANOMALY":277.7786,"EPHEMERIS_TYPE":0,"CLASSIFICATION_TYPE":"U","NORAD_CAT_ID":54157,"ELEMENT_SET_NO":999,"REV_AT_EPOCH":4884,"BSTAR":-5.8175e-5,"MEAN_MOTION_DOT":-1.214e-5,"MEAN_MOTION_DDOT":0},{"OBJECT_NAME":"STARLINK-5297","OBJECT_ID":"2022-141B","EPOCH":"2023-09-15T13:55:48.162720","MEAN_MOTION":15.08836022,"ECCENTRICITY":0.0001815,"INCLINATION":53.2174,"RA_OF_ASC_NODE":121.9332,"ARG_OF_PERICENTER":95.5715,"MEAN_ANOMALY":264.5484,"EPHEMERIS_TYPE":0,"CLASSIFICATION_TYPE":"U","NORAD_CAT_ID":54158,"ELEMENT_SET_NO":999,"REV_AT_EPOCH":4892,"BSTAR":-2.8205e-5,"MEAN_MOTION_DOT":-7.37e-6,"MEAN_MOTION_DDOT":0},{"OBJECT_NAME":"STARLINK-5294","OBJECT_ID":"2022-141C","EPOCH":"2023-09-15T01:07:25.522752","MEAN_MOTION":15.08834811,"ECCENTRICITY":0.0001454,"INCLINATION":53.2171,"RA_OF_ASC_NODE":124.2983,"ARG_OF_PERICENTER":94.4259,"MEAN_ANOMALY":265.6899,"EPHEMERIS_TYPE":0,"CLASSIFICATION_TYPE":"U","NORAD_CAT_ID":54159,"ELEMENT_SET_NO":999,"REV_AT_EPOCH":4884,"BSTAR":-5.8055e-5,"MEAN_MOTION_DOT":-1.212e-5,"MEAN_MOTION_DDOT":0},{"OBJECT_NAME":"STARLINK-5233","OBJECT_ID":"2022-141D","EPOCH":"2023-09-15T11:46:36.941376","MEAN_MOTION":15.08837625,"ECCENTRICITY":0.0001221,"INCLINATION":53.2168,"RA_OF_ASC_NODE":77.1736,"ARG_OF_PERICENTER":79.7991,"MEAN_ANOMALY":280.3139,"EPHEMERIS_TYPE":0,"CLASSIFICATION_TYPE":"U","NORAD_CAT_ID":54160,"ELEMENT_SET_NO":999,"REV_AT_EPOCH":4954,"BSTAR":-4.8735e-5,"MEAN_MOTION_DOT":-1.063e-5,"MEAN_MOTION_DDOT":0},{"OBJECT_NAME":"STARLINK-5269","OBJECT_ID":"2022-141E","EPOCH":"2023-09-15T01:08:47.822208","MEAN_MOTION":15.08837786,"ECCENTRICITY":0.0001282,"INCLINATION":53.2176,"RA_OF_ASC_NODE":124.2962,"ARG_OF_PERICENTER":96.3319,"MEAN_ANOMALY":263.7819,"EPHEMERIS_TYPE":0,"CLASSIFICATION_TYPE":"U","NORAD_CAT_ID":54161,"ELEMENT_SET_NO":999,"REV_AT_EPOCH":4884,"BSTAR":-4.7216e-5,"MEAN_MOTION_DOT":-1.039e-5,"MEAN_MOTION_DDOT":0},{"OBJECT_NAME":"STARLINK-5273","OBJECT_ID":"2022-141F","EPOCH":"2023-09-15T18:26:02.575968","MEAN_MOTION":15.08845265,"ECCENTRICITY":0.0001186,"INCLINATION":53.2165,"RA_OF_ASC_NODE":120.9753,"ARG_OF_PERICENTER":86.8458,"MEAN_ANOMALY":273.267,"EPHEMERIS_TYPE":0,"CLASSIFICATION_TYPE":"U","NORAD_CAT_ID":54162,"ELEMENT_SET_NO":999,"REV_AT_EPOCH":4895,"BSTAR":3.2362e-5,"MEAN_MOTION_DOT":2.27e-6,"MEAN_MOTION_DDOT":0},{"OBJECT_NAME":"STARLINK-5161","OBJECT_ID":"2022-141G","EPOCH":"2023-09-15T17:07:54.547392","MEAN_MOTION":15.08845075,"ECCENTRICITY":0.0001069,"INCLINATION":53.2169,"RA_OF_ASC_NODE":111.3739,"ARG_OF_PERICENTER":105.2004,"MEAN_ANOMALY":254.9106,"EPHEMERIS_TYPE":0,"CLASSIFICATION_TYPE":"U","NORAD_CAT_ID":54163,"ELEMENT_SET_NO":999,"REV_AT_EPOCH":4908,"BSTAR":-5.543e-6,"MEAN_MOTION_DOT":-3.76e-6,"MEAN_MOTION_DDOT":0},{"OBJECT_NAME":"STARLINK-5278","OBJECT_ID":"2022-141H","EPOCH":"2023-09-14T23:43:58.624608","MEAN_MOTION":15.08831438,"ECCENTRICITY":0.0001358,"INCLINATION":53.2161,"RA_OF_ASC_NODE":114.6681,"ARG_OF_PERICENTER":86.4562,"MEAN_ANOMALY":273.6585,"EPHEMERIS_TYPE":0,"CLASSIFICATION_TYPE":"U","NORAD_CAT_ID":54164,"ELEMENT_SET_NO":999,"REV_AT_EPOCH":4897,"BSTAR":-0.00011109,"MEAN_MOTION_DOT":-2.055e-5,"MEAN_MOTION_DDOT":0},{"OBJECT_NAME":"STARLINK-5279","OBJECT_ID":"2022-141J","EPOCH":"2023-09-15T18:20:44.354400","MEAN_MOTION":15.08841664,"ECCENTRICITY":0.0001191,"INCLINATION":53.2165,"RA_OF_ASC_NODE":120.9544,"ARG_OF_PERICENTER":83.3977,"MEAN_ANOMALY":276.7151,"EPHEMERIS_TYPE":0,"CLASSIFICATION_TYPE":"U","NORAD_CAT_ID":54165,"ELEMENT_SET_NO":999,"REV_AT_EPOCH":4895,"BSTAR":3.8673e-5,"MEAN_MOTION_DOT":3.28e-6,"MEAN_MOTION_DDOT":0},{"OBJECT_NAME":"STARLINK-5280","OBJECT_ID":"2022-141K","EPOCH":"2023-09-15T17:02:36.521088","MEAN_MOTION":15.08817861,"ECCENTRICITY":0.0001499,"INCLINATION":53.2162,"RA_OF_ASC_NODE":111.3523,"ARG_OF_PERICENTER":112.006,"MEAN_ANOMALY":248.1091,"EPHEMERIS_TYPE":0,"CLASSIFICATION_TYPE":"U","NORAD_CAT_ID":54166,"ELEMENT_SET_NO":999,"REV_AT_EPOCH":4908,"BSTAR":0.00018105,"MEAN_MOTION_DOT":2.593e-5,"MEAN_MOTION_DDOT":0},{"OBJECT_NAME":"STARLINK-5243","OBJECT_ID":"2022-141L","EPOCH":"2023-09-14T22:49:36.067296","MEAN_MOTION":15.0882728,"ECCENTRICITY":0.0001284,"INCLINATION":53.2172,"RA_OF_ASC_NODE":124.4104,"ARG_OF_PERICENTER":91.8344,"MEAN_ANOMALY":268.2795,"EPHEMERIS_TYPE":0,"CLASSIFICATION_TYPE":"U","NORAD_CAT_ID":54167,"ELEMENT_SET_NO":999,"REV_AT_EPOCH":4883,"BSTAR":-3.5874e-5,"MEAN_MOTION_DOT":-8.59e-6,"MEAN_MOTION_DDOT":0},{"OBJECT_NAME":"STARLINK-5245","OBJECT_ID":"2022-141M","EPOCH":"2023-09-14T21:52:41.203200","MEAN_MOTION":15.08830047,"ECCENTRICITY":0.0001229,"INCLINATION":53.2169,"RA_OF_ASC_NODE":114.8965,"ARG_OF_PERICENTER":92.0201,"MEAN_ANOMALY":268.0932,"EPHEMERIS_TYPE":0,"CLASSIFICATION_TYPE":"U","NORAD_CAT_ID":54168,"ELEMENT_SET_NO":999,"REV_AT_EPOCH":4896,"BSTAR":-8.5466e-5,"MEAN_MOTION_DOT":-1.647e-5,"MEAN_MOTION_DDOT":0},{"OBJECT_NAME":"STARLINK-5282","OBJECT_ID":"2022-141N","EPOCH":"2023-09-14T23:49:09.694848","MEAN_MOTION":15.08833806,"ECCENTRICITY":0.0001401,"INCLINATION":53.2163,"RA_OF_ASC_NODE":113.9903,"ARG_OF_PERICENTER":82.5491,"MEAN_ANOMALY":277.5661,"EPHEMERIS_TYPE":0,"CLASSIFICATION_TYPE":"U","NORAD_CAT_ID":54169,"ELEMENT_SET_NO":999,"REV_AT_EPOCH":4898,"BSTAR":-0.00010046,"MEAN_MOTION_DOT":-1.886e-5,"MEAN_MOTION_DDOT":0},{"OBJECT_NAME":"STARLINK-5155","OBJECT_ID":"2022-141P","EPOCH":"2023-09-15T18:27:22.731840","MEAN_MOTION":15.08842752,"ECCENTRICITY":0.0001287,"INCLINATION":53.2175,"RA_OF_ASC_NODE":111.0058,"ARG_OF_PERICENTER":89.0476,"MEAN_ANOMALY":271.0663,"EPHEMERIS_TYPE":0,"CLASSIFICATION_TYPE":"U","NORAD_CAT_ID":54170,"ELEMENT_SET_NO":999,"REV_AT_EPOCH":4908,"BSTAR":3.563e-6,"MEAN_MOTION_DOT":-2.31e-6,"MEAN_MOTION_DDOT":0},{"OBJECT_NAME":"STARLINK-5229","OBJECT_ID":"2022-141Q","EPOCH":"2023-09-15T18:02:49.936704","MEAN_MOTION":15.08843699,"ECCENTRICITY":0.000131,"INCLINATION":53.2165,"RA_OF_ASC_NODE":115.8802,"ARG_OF_PERICENTER":86.5825,"MEAN_ANOMALY":273.5316,"EPHEMERIS_TYPE":0,"CLASSIFICATION_TYPE":"U","NORAD_CAT_ID":54171,"ELEMENT_SET_NO":999,"REV_AT_EPOCH":4902,"BSTAR":8.3908e-5,"MEAN_MOTION_DOT":1.048e-5,"MEAN_MOTION_DDOT":0},{"OBJECT_NAME":"STARLINK-5117","OBJECT_ID":"2022-141R","EPOCH":"2023-09-14T21:36:45.355680","MEAN_MOTION":15.08830904,"ECCENTRICITY":0.0001284,"INCLINATION":53.2154,"RA_OF_ASC_NODE":114.8267,"ARG_OF_PERICENTER":96.7031,"MEAN_ANOMALY":263.4107,"EPHEMERIS_TYPE":0,"CLASSIFICATION_TYPE":"U","NORAD_CAT_ID":54172,"ELEMENT_SET_NO":999,"REV_AT_EPOCH":4896,"BSTAR":-9.804e-5,"MEAN_MOTION_DOT":-1.847e-5,"MEAN_MOTION_DDOT":0}]
