SKIF-D                  
1 54153U 22139D   23258.36834818  .00000042  00000+0  00000+0 0  9990
2 54153  89.9992  96.7931 0008335 124.1241 236.0320  5.00434313 13783
STARLINK-5290           
1 54157U 22141A   23258.04313579 -.00001214  00000+0 -58175-4 0  9993
2 54157  53.2171 124.2678 0001409  82.3367 277.7786 15.08837499 48848
STARLINK-5297           
1 54158U 22141B   23258.58041855 -.00000737  00000+0 -28205-4 0  9998
2 54158  53.2174 121.9332 0001815  95.5715 264.5484 15.08836022 48926
STARLINK-5294           
1 54159U 22141C   23258.04682318 -.00001212  00000+0 -58055-4 0  9990
2 54159  53.2171 124.2983 0001454  94.4259 265.6899 15.08834811 48849
STARLINK-5233           
1 54160U 22141D   23258.49070534 -.00001063  00000+0 -48735-4 0  9990
2 54160  53.2168  77.1736 0001221  79.7991 280.3139 15.08837625 49545
STARLINK-5269           
1 54161U 22141E   23258.04777572 -.00001039  00000+0 -47216-4 0  9994
2 54161  53.2176 124.2962 0001282  96.3319 263.7819 15.08837786 48846
STARLINK-5273           
1 54162U 22141F   23258.76808537  .00000227  00000+0  32362-4 0  9992
2 54162  53.2165 120.9753 0001186  86.8458 273.2670 15.08845265 48951
STARLINK-5161           
1 54163U 22141G   23258.71382578 -.00000376  00000+0 -55430-5 0  9999
2 54163  53.2169 111.3739 0001069 105.2004 254.9106 15.08845075 49081
STARLINK-5278           
1 54164U 22141H   23257.98887297 -.00002055  00000+0 -11109-3 0  9995
2 54164  53.2161 114.6681 0001358  86.4562 273.6585 15.08831438 48970
STARLINK-5279           
1 54165U 22141J   23258.76440225  .00000328  00000+0  38673-4 0  9994
2 54165  53.2165 120.9544 0001191  83.3977 276.7151 15.08841664 48957
STARLINK-5280           
1 54166U 22141K   23258.71014492  .00002593  00000+0  18105-3 0  9996
2 54166  53.2162 111.3523 0001499 112.0060 248.1091 15.08817861 49083
STARLINK-5243           
1 54167U 22141L   23257.95111189 -.00000859  00000+0 -35874-4 0  9991
2 54167  53.2172 124.4104 0001284  91.8344 268.2795 15.08827280 48838
STARLINK-5245           
1 54168U 22141M   23257.91158800 -.00001647  00000+0 -85466-4 0  9997
2 54168  53.2169 114.8965 0001229  92.0201 268.0932 15.08830047 48967
STARLINK-5282           
1 54169U 22141N   23257.99247332 -.00001886  00000+0 -10046-3 0  9991
2 54169  53.2163 113.9903 0001401  82.5491 277.5661 15.08833806 48983
STARLINK-5155           
1 54170U 22141P   23258.76901310 -.00000231  00000+0  35630-5 0  9992
2 54170  53.2175 111.0058 0001287  89.0476 271.0663 15.08842752 49088
STARLINK-5229           
1 54171U 22141Q   23258.75196686  .00001048  00000+0  83908-4 0  9990
2 54171  53.2165 115.8802 0001310  86.5825 273.5316 15.08843699 49021
STARLINK-5117           
1 54172U 22141R   23257.90052495 -.00001847  00000+0 -98040-4 0  9998
2 54172  53.2154 114.8267 0001284  96.7031 263.4107 15.08830904 48969
